{
  "type": "FeatureCollection",
  "features": [
    {
      "type": "Feature",
      "properties": {
        "norad_id": 54741,
        "name": "GALAXY 35 (G-35)",
        "group": "intelsat",
        "lat": 0.0014820746310213958,
        "lon": 58.23060110883342,
        "alt_km": 35793.73655068889,
        "timestamp": "2025-12-24T03:53:29.310495+00:00",
        "meta_object_name": "GALAXY 35 (G-35)",
        "meta_object_id": "2022-170A",
        "meta_epoch": "2025-12-23T04:13:27.577632",
        "meta_mean_motion": 1.00271562,
        "meta_eccentricity": 0.00022113,
        "meta_inclination": 0.0227,
        "meta_ra_of_asc_node": 87.6624,
        "meta_arg_of_pericenter": 186.8343,
        "meta_mean_anomaly": 147.7469,
        "meta_ephemeris_type": 0,
        "meta_classification_type": "U",
        "meta_norad_cat_id": 54741,
        "meta_element_set_no": 999,
        "meta_rev_at_epoch": 1112,
        "meta_bstar": 0,
        "meta_mean_motion_dot": -1.41e-06,
        "meta_mean_motion_ddot": 0,
        "tle_line1": "1 54741U 22170A   25357.17601363 -.00000141  00000+0  00000+0 0  9997",
        "tle_line2": "2 54741   0.0227  87.6624 0002211 186.8343 147.7469  1.00271562 11123"
      },
      "geometry": {
        "type": "Point",
        "coordinates": [
          58.23060110883342,
          0.0014820746310213958
        ]
      }
    },
    {
      "type": "Feature",
      "properties": {
        "norad_id": 54742,
        "name": "GALAXY 36 (G-36)",
        "group": "intelsat",
        "lat": 0.010358017016708892,
        "lon": 62.307477686798244,
        "alt_km": 35786.220121069986,
        "timestamp": "2025-12-24T03:53:29.310506+00:00",
        "meta_object_name": "GALAXY 36 (G-36)",
        "meta_object_id": "2022-170B",
        "meta_epoch": "2025-12-23T06:09:11.626848",
        "meta_mean_motion": 1.00270403,
        "meta_eccentricity": 4.607e-05,
        "meta_inclination": 0.0188,
        "meta_ra_of_asc_node": 66.7013,
        "meta_arg_of_pericenter": 274.6982,
        "meta_mean_anomaly": 113.9474,
        "meta_ephemeris_type": 0,
        "meta_classification_type": "U",
        "meta_norad_cat_id": 54742,
        "meta_element_set_no": 999,
        "meta_rev_at_epoch": 1101,
        "meta_bstar": 0,
        "meta_mean_motion_dot": -1.64e-06,
        "meta_mean_motion_ddot": 0,
        "tle_line1": "1 54742U 22170B   25357.25638457 -.00000164  00000+0  00000+0 0  9996",
        "tle_line2": "2 54742   0.0188  66.7013 0000460 274.6982 113.9474  1.00270403 11011"
      },
      "geometry": {
        "type": "Point",
        "coordinates": [
          62.307477686798244,
          0.010358017016708892
        ]
      }
    },
    {
      "type": "Feature",
      "properties": {
        "norad_id": 57493,
        "name": "GALAXY 37 (G-37)",
        "group": "intelsat",
        "lat": 0.013814557386056723,
        "lon": 24.31991354184307,
        "alt_km": 35788.765578682935,
        "timestamp": "2025-12-24T03:53:29.310518+00:00",
        "meta_object_name": "GALAXY 37 (G-37)",
        "meta_object_id": "2023-112A",
        "meta_epoch": "2025-12-23T15:57:05.583744",
        "meta_mean_motion": 1.00271472,
        "meta_eccentricity": 0.0002023,
        "meta_inclination": 0.0168,
        "meta_ra_of_asc_node": 359.8398,
        "meta_arg_of_pericenter": 276.5793,
        "meta_mean_anomaly": 288.2964,
        "meta_ephemeris_type": 0,
        "meta_classification_type": "U",
        "meta_norad_cat_id": 57493,
        "meta_element_set_no": 999,
        "meta_rev_at_epoch": 878,
        "meta_bstar": 0,
        "meta_mean_motion_dot": 6.9e-07,
        "meta_mean_motion_ddot": 0,
        "tle_line1": "1 57493U 23112A   25357.66464796  .00000069  00000+0  00000+0 0  9990",
        "tle_line2": "2 57493   0.0168 359.8398 0002023 276.5793 288.2964  1.00271472  8782"
      },
      "geometry": {
        "type": "Point",
        "coordinates": [
          24.31991354184307,
          0.013814557386056723
        ]
      }
    }
  ]
}